[{"OBJECT_NAME":"STARLINK-36704","OBJECT_ID":"2026-025E","EPOCH":"2026-02-15T22:00:01.999584","MEAN_MOTION":16.007808,"ECCENTRICITY":0.00016684,"INCLINATION":97.2792,"RA_OF_ASC_NODE":157.2292,"ARG_OF_PERICENTER":75.2998,"MEAN_ANOMALY":151.1045,"EPHEMERIS_TYPE":0,"CLASSIFICATION_TYPE":"U","NORAD_CAT_ID":67697,"ELEMENT_SET_NO":999,"REV_AT_EPOCH":234,"BSTAR":-0.0026971242,"MEAN_MOTION_DOT":-0.01419421,"MEAN_MOTION_DDOT":0.00063228289},{"OBJECT_NAME":"STARLINK-36697","OBJECT_ID":"2026-025F","EPOCH":"2026-02-15T22:00:01.999584","MEAN_MOTION":16.0094559,"ECCENTRICITY":0.00016582,"INCLINATION":97.2793,"RA_OF_ASC_NODE":157.2309,"ARG_OF_PERICENTER":72.4084,"MEAN_ANOMALY":156.8984,"EPHEMERIS_TYPE":0,"CLASSIFICATION_TYPE":"U","NORAD_CAT_ID":67698,"ELEMENT_SET_NO":999,"REV_AT_EPOCH":229,"BSTAR":-0.0026505931,"MEAN_MOTION_DOT":-0.01408248,"MEAN_MOTION_DDOT":0.00062425702},{"OBJECT_NAME":"STARLINK-36716","OBJECT_ID":"2026-025G","EPOCH":"2026-02-15T22:00:01.999584","MEAN_MOTION":16.01177952,"ECCENTRICITY":0.00013967,"INCLINATION":97.2788,"RA_OF_ASC_NODE":157.2318,"ARG_OF_PERICENTER":68.0121,"MEAN_ANOMALY":164.9746,"EPHEMERIS_TYPE":0,"CLASSIFICATION_TYPE":"U","NORAD_CAT_ID":67699,"ELEMENT_SET_NO":999,"REV_AT_EPOCH":250,"BSTAR":-0.0025675552,"MEAN_MOTION_DOT":-0.01382623,"MEAN_MOTION_DDOT":0.0006049724},{"OBJECT_NAME":"STARLINK-36712","OBJECT_ID":"2026-025H","EPOCH":"2026-02-15T22:00:01.999584","MEAN_MOTION":16.01385115,"ECCENTRICITY":0.00015418,"INCLINATION":97.2789,"RA_OF_ASC_NODE":157.2336,"ARG_OF_PERICENTER":77.4783,"MEAN_ANOMALY":159.0791,"EPHEMERIS_TYPE":0,"CLASSIFICATION_TYPE":"U","NORAD_CAT_ID":67700,"ELEMENT_SET_NO":999,"REV_AT_EPOCH":229,"BSTAR":-0.0025627537,"MEAN_MOTION_DOT":-0.0139643,"MEAN_MOTION_DDOT":0.00061766835},{"OBJECT_NAME":"STARLINK-36713","OBJECT_ID":"2026-025J","EPOCH":"2026-02-15T22:00:01.999584","MEAN_MOTION":16.01603953,"ECCENTRICITY":0.00015789,"INCLINATION":97.2786,"RA_OF_ASC_NODE":157.2346,"ARG_OF_PERICENTER":61.9655,"MEAN_ANOMALY":178.1459,"EPHEMERIS_TYPE":0,"CLASSIFICATION_TYPE":"U","NORAD_CAT_ID":67701,"ELEMENT_SET_NO":999,"REV_AT_EPOCH":250,"BSTAR":-0.0024879835,"MEAN_MOTION_DOT":-0.0137315,"MEAN_MOTION_DDOT":0.00060023317},{"OBJECT_NAME":"STARLINK-36695","OBJECT_ID":"2026-025K","EPOCH":"2026-02-15T22:00:01.999584","MEAN_MOTION":16.01767994,"ECCENTRICITY":0.00015509,"INCLINATION":97.2785,"RA_OF_ASC_NODE":157.2362,"ARG_OF_PERICENTER":68.8952,"MEAN_ANOMALY":174.1985,"EPHEMERIS_TYPE":0,"CLASSIFICATION_TYPE":"U","NORAD_CAT_ID":67702,"ELEMENT_SET_NO":999,"REV_AT_EPOCH":234,"BSTAR":-0.0024613995,"MEAN_MOTION_DOT":-0.01371415,"MEAN_MOTION_DDOT":0.00059995499},{"OBJECT_NAME":"STARLINK-36630","OBJECT_ID":"2026-025L","EPOCH":"2026-02-15T22:00:01.999584","MEAN_MOTION":16.01931702,"ECCENTRICITY":0.00015875,"INCLINATION":97.2784,"RA_OF_ASC_NODE":157.2375,"ARG_OF_PERICENTER":71.0579,"MEAN_ANOMALY":174.9513,"EPHEMERIS_TYPE":0,"CLASSIFICATION_TYPE":"U","NORAD_CAT_ID":67703,"ELEMENT_SET_NO":999,"REV_AT_EPOCH":234,"BSTAR":-0.0024251019,"MEAN_MOTION_DOT":-0.01364138,"MEAN_MOTION_DDOT":0.00059519146},{"OBJECT_NAME":"STARLINK-36338","OBJECT_ID":"2026-025M","EPOCH":"2026-02-15T22:00:01.999584","MEAN_MOTION":16.02162427,"ECCENTRICITY":0.00015451,"INCLINATION":97.2783,"RA_OF_ASC_NODE":157.2391,"ARG_OF_PERICENTER":74.5383,"MEAN_ANOMALY":175.21,"EPHEMERIS_TYPE":0,"CLASSIFICATION_TYPE":"U","NORAD_CAT_ID":67704,"ELEMENT_SET_NO":999,"REV_AT_EPOCH":239,"BSTAR":-0.0023722935,"MEAN_MOTION_DOT":-0.01352528,"MEAN_MOTION_DDOT":0.00058740378},{"OBJECT_NAME":"STARLINK-36316","OBJECT_ID":"2026-025N","EPOCH":"2026-02-15T22:00:01.999584","MEAN_MOTION":16.02619012,"ECCENTRICITY":0.00015053,"INCLINATION":97.2779,"RA_OF_ASC_NODE":157.2426,"ARG_OF_PERICENTER":71.1401,"MEAN_ANOMALY":186.1246,"EPHEMERIS_TYPE":0,"CLASSIFICATION_TYPE":"U","NORAD_CAT_ID":67705,"ELEMENT_SET_NO":999,"REV_AT_EPOCH":239,"BSTAR":-0.0022752827,"MEAN_MOTION_DOT":-0.013324,"MEAN_MOTION_DDOT":0.00057435202},{"OBJECT_NAME":"STARLINK-36707","OBJECT_ID":"2026-025P","EPOCH":"2026-02-15T22:00:01.999584","MEAN_MOTION":16.02862563,"ECCENTRICITY":0.00013688,"INCLINATION":97.2777,"RA_OF_ASC_NODE":157.2438,"ARG_OF_PERICENTER":76.8651,"MEAN_ANOMALY":184.2883,"EPHEMERIS_TYPE":0,"CLASSIFICATION_TYPE":"U","NORAD_CAT_ID":67706,"ELEMENT_SET_NO":999,"REV_AT_EPOCH":218,"BSTAR":-0.0022330781,"MEAN_MOTION_DOT":-0.0132649,"MEAN_MOTION_DDOT":0.00057126174},{"OBJECT_NAME":"STARLINK-36645","OBJECT_ID":"2026-025Q","EPOCH":"2026-02-15T22:00:01.999584","MEAN_MOTION":16.02428048,"ECCENTRICITY":0.00014223,"INCLINATION":97.2779,"RA_OF_ASC_NODE":157.2404,"ARG_OF_PERICENTER":73.3498,"MEAN_ANOMALY":180.6749,"EPHEMERIS_TYPE":0,"CLASSIFICATION_TYPE":"U","NORAD_CAT_ID":67707,"ELEMENT_SET_NO":999,"REV_AT_EPOCH":195,"BSTAR":-0.0023222125,"MEAN_MOTION_DOT":-0.01344653,"MEAN_MOTION_DDOT":0.00058287576},{"OBJECT_NAME":"STARLINK-36287","OBJECT_ID":"2026-025R","EPOCH":"2026-02-15T22:00:01.999584","MEAN_MOTION":16.03065757,"ECCENTRICITY":0.00014586,"INCLINATION":97.2775,"RA_OF_ASC_NODE":157.2448,"ARG_OF_PERICENTER":71.7216,"MEAN_ANOMALY":192.8208,"EPHEMERIS_TYPE":0,"CLASSIFICATION_TYPE":"U","NORAD_CAT_ID":67708,"ELEMENT_SET_NO":999,"REV_AT_EPOCH":250,"BSTAR":-0.0021843286,"MEAN_MOTION_DOT":-0.01313268,"MEAN_MOTION_DDOT":0.00056209934},{"OBJECT_NAME":"STARLINK-36698","OBJECT_ID":"2026-025S","EPOCH":"2026-02-15T22:00:01.999584","MEAN_MOTION":16.03857373,"ECCENTRICITY":0.00013727,"INCLINATION":97.2772,"RA_OF_ASC_NODE":157.2507,"ARG_OF_PERICENTER":75.7313,"MEAN_ANOMALY":201.4797,"EPHEMERIS_TYPE":0,"CLASSIFICATION_TYPE":"U","NORAD_CAT_ID":67709,"ELEMENT_SET_NO":999,"REV_AT_EPOCH":234,"BSTAR":-0.0020212585,"MEAN_MOTION_DOT":-0.01273826,"MEAN_MOTION_DDOT":0.00053622804},{"OBJECT_NAME":"STARLINK-36344","OBJECT_ID":"2026-025T","EPOCH":"2026-02-15T22:00:01.999584","MEAN_MOTION":16.03367121,"ECCENTRICITY":0.00014636,"INCLINATION":97.2775,"RA_OF_ASC_NODE":157.2477,"ARG_OF_PERICENTER":67.7514,"MEAN_ANOMALY":201.6132,"EPHEMERIS_TYPE":0,"CLASSIFICATION_TYPE":"U","NORAD_CAT_ID":67710,"ELEMENT_SET_NO":999,"REV_AT_EPOCH":250,"BSTAR":-0.0021068359,"MEAN_MOTION_DOT":-0.0128962,"MEAN_MOTION_DDOT":0.000545435},{"OBJECT_NAME":"STARLINK-36687","OBJECT_ID":"2026-025U","EPOCH":"2026-02-15T22:00:01.999584","MEAN_MOTION":16.0359422,"ECCENTRICITY":0.00014728,"INCLINATION":97.2773,"RA_OF_ASC_NODE":157.2488,"ARG_OF_PERICENTER":70.2793,"MEAN_ANOMALY":202.7741,"EPHEMERIS_TYPE":0,"CLASSIFICATION_TYPE":"U","NORAD_CAT_ID":67711,"ELEMENT_SET_NO":999,"REV_AT_EPOCH":250,"BSTAR":-0.0020691898,"MEAN_MOTION_DOT":-0.01283757,"MEAN_MOTION_DDOT":0.00054230247},{"OBJECT_NAME":"STARLINK-36705","OBJECT_ID":"2026-025V","EPOCH":"2026-02-15T22:00:01.999584","MEAN_MOTION":16.0412667,"ECCENTRICITY":0.00013428,"INCLINATION":97.2767,"RA_OF_ASC_NODE":157.2522,"ARG_OF_PERICENTER":66.4237,"MEAN_ANOMALY":215.0973,"EPHEMERIS_TYPE":0,"CLASSIFICATION_TYPE":"U","NORAD_CAT_ID":67712,"ELEMENT_SET_NO":999,"REV_AT_EPOCH":240,"BSTAR":-0.001955745,"MEAN_MOTION_DOT":-0.01252671,"MEAN_MOTION_DDOT":0.00052153356}]
